NORAD_CAT_ID,OBJECT_NAME,OBJECT_TYPE,EPOCH,MEAN_MOTION,ECCENTRICITY,INCLINATION,RA_OF_ASC_NODE,ARG_OF_PERICENTER,MEAN_ANOMALY,BSTAR,MEAN_MOTION_DOT,MEAN_MOTION_DDOT,TLE_LINE0,TLE_LINE1,TLE_LINE2,SEMIMAJOR_AXIS,PERIOD,APOGEE,PERIGEE,DECAYED
53403.0,STARLINK-4507,PAYLOAD,2024-03-12 04:40:48,15.08837923,0.0001331,53.2161,150.3199,99.0248,261.0895,0.0001807,2.589e-05,0.0,0 STARLINK-4507,1 53403U 22097R   24072.19500251  .00002589  00000-0  18070-3 0  9996,2 53403  53.2161 150.3199 0001331  99.0248 261.0895 15.08837923 88196,6917.887,95.438,540.673,538.831,0.0
53403.0,STARLINK-4507,PAYLOAD,2024-03-12 11:02:20,15.08836824,0.000129,53.2159,149.1295,93.8873,266.2266,1.2932e-05,-8.2e-07,0.0,0 STARLINK-4507,1 53403U 22097R   24072.45996363 -.00000082  00000-0  12932-4 0  9997,2 53403  53.2159 149.1295 0001290  93.8873 266.2266 15.08836824 88723,6917.89,95.438,540.648,538.863,0.0
53403.0,STARLINK-4507,PAYLOAD,2024-03-13 12:28:30,15.08846471,0.000147,53.2168,144.3711,91.4114,268.7047,0.0001639,2.322e-05,0.0,0 STARLINK-4507,1 53403U 22097R   24073.51979978  .00002322  00000-0  16390-3 0  9997,2 53403  53.2168 144.3711 0001470  91.4114 268.7047 15.08846471 88391,6917.861,95.437,540.743,538.709,0.0
53403.0,STARLINK-4507,PAYLOAD,2024-03-14 10:43:54,15.08843201,0.0001469,53.216,140.2082,89.6511,270.4649,0.00014896,2.084e-05,0.0,0 STARLINK-4507,1 53403U 22097R   24074.44716105  .00002084  00000-0  14896-3 0  9995,2 53403  53.2160 140.2082 0001469  89.6511 270.4649 15.08843201 88539,6917.871,95.437,540.752,538.719,0.0
53403.0,STARLINK-4507,PAYLOAD,2024-03-15 10:34:41,15.08840655,0.0001488,53.2175,135.7482,94.7819,265.3343,1.2222e-05,-9.3e-07,0.0,0 STARLINK-4507,1 53403U 22097R   24075.44076246 -.00000093  00000-0  12222-4 0  9992,2 53403  53.2175 135.7482 0001488  94.7819 265.3343 15.08840655 88687,6917.878,95.438,540.773,538.714,0.0
53403.0,STARLINK-4507,PAYLOAD,2024-03-16 08:50:06,15.08833806,0.0001536,53.2171,131.5823,104.4034,255.7129,2.1806e-05,5.9e-07,0.0,0 STARLINK-4507,1 53403U 22097R   24076.36812562  .00000059  00000-0  21806-4 0  9992,2 53403  53.2171 131.5823 0001536 104.4034 255.7129 15.08833806 88829,6917.899,95.438,540.827,538.702,0.0
53403.0,STARLINK-4507,PAYLOAD,2024-03-17 08:40:53,15.08833445,0.0001451,53.2168,127.1215,100.731,259.3846,2.699e-05,1.42e-06,0.0,0 STARLINK-4507,1 53403U 22097R   24077.36172921  .00000142  00000-0  26990-4 0  9993,2 53403  53.2168 127.1215 0001451 100.7310 259.3846 15.08833445 89469,6917.9,95.438,540.769,538.762,0.0
53403.0,STARLINK-4507,PAYLOAD,2024-03-18 08:31:40,15.08835301,0.000146,53.2163,122.6599,103.1749,256.9406,8.6264e-05,1.085e-05,0.0,0 STARLINK-4507,1 53403U 22097R   24078.35532924  .00001085  00000-0  86264-4 0  9993,2 53403  53.2163 122.6599 0001460 103.1749 256.9406 15.08835301 89123,6917.895,95.438,540.77,538.75,0.0
53403.0,STARLINK-4507,PAYLOAD,2024-03-19 11:33:13,15.08846965,0.000148,53.2164,117.6046,101.1768,258.939,0.00015931,2.249e-05,0.0,0 STARLINK-4507,1 53403U 22097R   24079.48140300  .00002249  00000-0  15931-3 0  9996,2 53403  53.2164 117.6046 0001480 101.1768 258.9390 15.08846965 89296,6917.859,95.437,540.748,538.7,0.0
53403.0,STARLINK-4507,PAYLOAD,2024-03-20 09:48:37,15.08837819,0.0001601,53.2174,113.4388,97.724,262.3934,2.6001e-05,1.26e-06,0.0,0 STARLINK-4507,1 53403U 22097R   24080.40877284  .00000126  00000-0  26001-4 0  9991,2 53403  53.2174 113.4388 0001601  97.7240 262.3934 15.08837819 89437,6917.887,95.438,540.86,538.645,0.0
53403.0,STARLINK-4507,PAYLOAD,2024-03-20 11:24:01,15.08838006,0.0001601,53.2174,113.142,98.2555,261.8619,2.5659e-05,1.2e-06,0.0,0 STARLINK-4507,1 53403U 22097R   24080.47501300  .00000120  00000-0  25659-4 0  9993,2 53403  53.2174 113.1420 0001601  98.2555 261.8619 15.08838006 89934,6917.886,95.438,540.859,538.644,0.0
53403.0,STARLINK-4507,PAYLOAD,2024-03-21 11:14:47,15.08847224,0.0001586,53.2169,108.6855,101.106,259.0111,4.482e-05,4.25e-06,0.0,0 STARLINK-4507,1 53403U 22097R   24081.46860586  .00000425  00000-0  44820-4 0  9996,2 53403  53.2169 108.6855 0001586 101.1060 259.0111 15.08847224 89596,6917.858,95.437,540.82,538.626,0.0
53403.0,STARLINK-4507,PAYLOAD,2024-03-22 07:54:48,15.08843751,0.0001532,53.2166,104.8202,98.8149,261.3017,0.00011878,1.603e-05,0.0,0 STARLINK-4507,1 53403U 22097R   24082.32972508  .00001603  00000-0  11878-3 0  9995,2 53403  53.2166 104.8202 0001532  98.8149 261.3017 15.08843751 90211,6917.869,95.437,540.794,538.674,0.0
53403.0,STARLINK-4507,PAYLOAD,2024-03-23 04:34:50,15.08824152,0.0001356,53.2168,100.954,87.4916,272.6231,-0.00012808,-2.325e-05,0.0,0 STARLINK-4507,1 53403U 22097R   24083.19086212 -.00002325  00000-0 -12808-3 0  9997,2 53403  53.2168 100.9540 0001356  87.4916 272.6231 15.08824152 89850,6917.929,95.439,540.732,538.856,0.0
53403.0,STARLINK-4507,PAYLOAD,2024-03-23 10:56:23,15.08826132,0.0001331,53.2169,99.7638,85.5362,274.5782,-0.00011018,-2.04e-05,0.0,0 STARLINK-4507,1 53403U 22097R   24083.45582200 -.00002040  00000-0 -11018-3 0  9990,2 53403  53.2169  99.7638 0001331  85.5362 274.5782 15.08826132 90383,6917.923,95.438,540.709,538.867,0.0
53403.0,STARLINK-4507,PAYLOAD,2024-03-24 04:25:36,15.08843055,0.0001339,53.2169,96.4975,71.9453,288.1685,7.9476e-05,9.77e-06,0.0,0 STARLINK-4507,1 53403U 22097R   24084.18444957  .00000977  00000-0  79476-4 0  9995,2 53403  53.2169  96.4975 0001339  71.9453 288.1685 15.08843055 90004,6917.871,95.437,540.662,538.81,0.0
53403.0,STARLINK-4507,PAYLOAD,2024-03-24 07:36:22,15.08851824,0.0001128,53.2164,95.8994,77.813,282.2989,0.00019789,2.864e-05,0.0,0 STARLINK-4507,1 53403U 22097R   24084.31692449  .00002864  00000-0  19789-3 0  9998,2 53403  53.2164  95.8994 0001128  77.8130 282.2989 15.08851824 90023,6917.844,95.437,540.49,538.929,0.0
53403.0,STARLINK-4507,PAYLOAD,2024-03-24 17:08:40,15.08870499,0.0001374,53.2172,94.1152,114.7744,245.3392,0.00050883,7.826e-05,0.0,0 STARLINK-4507,1 53403U 22097R   24084.71435386  .00007826  00000-0  50883-3 0  9990,2 53403  53.2172  94.1152 0001374 114.7744 245.3392 15.08870499 90088,6917.787,95.436,540.603,538.702,0.0
53403.0,STARLINK-4507,PAYLOAD,2024-03-25 05:51:46,15.0883779,0.00015,53.2159,91.736,97.6424,262.4738,-5.8512e-06,-3.81e-06,0.0,0 STARLINK-4507,1 53403U 22097R   24085.24429006 -.00000381  00000-0 -58512-5 0  9991,2 53403  53.2159  91.7360 0001500  97.6424 262.4738 15.08837790 90162,6917.887,95.438,540.79,538.714,0.0
53403.0,STARLINK-4507,PAYLOAD,2024-03-25 16:59:29,15.08847239,0.0001389,53.2156,89.6549,97.9828,262.1321,0.0024323,0.00038642,0.0,0 STARLINK-4507,1 53403U 22097R   24085.70797798  .00038642  00000-0  24323-2 0  9997,2 53403  53.2156  89.6549 0001389  97.9828 262.1321 15.08847239 90726,6917.858,95.437,540.684,538.762,0.0
53403.0,STARLINK-4507,PAYLOAD,2024-03-26 05:42:35,15.08821606,0.0001388,53.2156,87.2739,98.4153,261.6996,0.0017182,0.00027149,0.0,0 STARLINK-4507,1 53403U 22097R   24086.23790999  .00027149  00000-0  17182-2 0  9997,2 53403  53.2156  87.2739 0001388  98.4153 261.6996 15.08821606 90314,6917.937,95.439,540.762,538.841,0.0
53403.0,STARLINK-4507,PAYLOAD,2024-03-26 08:53:21,15.08827402,0.000139,53.2157,86.6813,103.6593,256.4553,0.0022733,0.00036065,0.0,0 STARLINK-4507,1 53403U 22097R   24086.37039181  .00036065  00000-0  22733-2 0  9996,2 53403  53.2157  86.6813 0001390 103.6593 256.4553 15.08827402 90828,6917.919,95.438,540.745,538.822,0.0
53403.0,STARLINK-4507,PAYLOAD,2024-03-26 16:50:17,15.08827472,0.0001546,53.2169,85.1949,109.1033,251.0127,0.0010476,0.00016418,0.0,0 STARLINK-4507,1 53403U 22097R   24086.70159464  .00016418  00000-0  10476-2 0  9991,2 53403  53.2169  85.1949 0001546 109.1033 251.0127 15.08827472 90384,6917.919,95.438,540.853,538.714,0.0
53403.0,STARLINK-4507,PAYLOAD,2024-03-27 08:44:08,15.08859354,0.0001433,53.2154,82.2207,108.5007,251.614,0.0014276,0.00022517,0.0,0 STARLINK-4507,1 53403U 22097R   24087.36399113  .00022517  00000-0  14276-2 0  9990,2 53403  53.2154  82.2207 0001433 108.5007 251.6140 15.08859354 90488,6917.821,95.436,540.678,538.695,0.0
53403.0,STARLINK-4507,PAYLOAD,2024-03-27 16:41:04,15.08868838,0.0001334,53.2151,80.7325,101.6602,258.454,0.0010583,0.00016608,0.0,0 STARLINK-4507,1 53403U 22097R   24087.69518551  .00016608  00000-0  10583-2 0  9996,2 53403  53.2151  80.7325 0001334 101.6602 258.4540 15.08868838 91021,6917.792,95.436,540.58,538.734,0.0
53403.0,STARLINK-4507,PAYLOAD,2024-03-28 05:24:08,15.08861791,0.0001469,53.2156,78.3546,106.7756,253.3397,0.00057543,8.887e-05,0.0,0 STARLINK-4507,1 53403U 22097R   24088.22510247  .00008887  00000-0  57543-3 0  9998,2 53403  53.2156  78.3546 0001469 106.7756 253.3397 15.08861791 90618,6917.814,95.436,540.695,538.663,0.0
53403.0,STARLINK-4507,PAYLOAD,2024-03-28 08:34:54,15.08863705,0.0001501,53.2157,77.7599,105.1097,255.0061,0.00062265,9.642e-05,0.0,0 STARLINK-4507,1 53403U 22097R   24088.35758091  .00009642  00000-0  62265-3 0  9990,2 53403  53.2157  77.7599 0001501 105.1097 255.0061 15.08863705 91129,6917.808,95.436,540.711,538.635,0.0
53403.0,STARLINK-4507,PAYLOAD,2024-03-28 22:53:23,15.0887235,0.0003582,53.217,75.0798,89.3698,270.7705,0.0011253,0.00017683,0.0,0 STARLINK-4507,1 53403U 22097R   24088.95374092  .00017683  00000-0  11253-2 0  9995,2 53403  53.2170  75.0798 0003582  89.3698 270.7705 15.08872350 91212,6917.782,95.436,542.124,537.169,0.0
53403.0,STARLINK-4507,PAYLOAD,2024-03-29 05:14:55,15.08851013,0.000152,53.2167,73.8937,100.6287,259.4876,0.00042584,6.498e-05,0.0,0 STARLINK-4507,1 53403U 22097R   24089.21869750  .00006498  00000-0  42584-3 0  9999,2 53403  53.2167  73.8937 0001520 100.6287 259.4876 15.08851013 90765,6917.847,95.437,540.763,538.66,0.0
53403.0,STARLINK-4507,PAYLOAD,2024-03-29 08:25:41,15.08853245,0.0001489,53.2167,73.299,100.5294,259.5866,0.00059604,9.214e-05,0.0,0 STARLINK-4507,1 53403U 22097R   24089.35117696  .00009214  00000-0  59604-3 0  9999,2 53403  53.2167  73.2990 0001489 100.5294 259.5866 15.08853245 91275,6917.84,95.437,540.735,538.675,0.0
